CSS (TIANHE)            
1 48274U 21035A   23345.91817486  .00011418  00000+0  12334-3 0  9997
2 48274  41.4684 153.4044 0007416 318.1987  41.8286 15.63475814149625
